satname,norad_id,inclination_deg,eccentricity,mean_motion_rev_per_day,perigee_km,apogee_km,l1,l2
STARLINK-1132,45044,53.0564,0.0001252,15.06389994,546.3751675779222,548.1092825358774,1 45044U 20006A   25252.59264774  .00004121  00000+0  29547-3 0  9992,2 45044  53.0564 359.5950 0001252  88.6125 271.5008 15.06389994309445
STARLINK-1131,45047,53.0573,0.0001219,15.06396832,546.3770662462193,548.0654685918153,1 45047U 20006D   25253.36491051  .00000448  00000+0  48937-4 0  9994,2 45047  53.0573  16.6676 0001219  83.9964 276.1164 15.06396832309270
STARLINK-1134,45048,53.0478,0.0005864,15.22743431,493.5379283858365,501.60175737116333,1 45048U 20006E   25253.29730268  .00012447  00000+0  53957-3 0  9992,2 45048  53.0478   1.4977 0005864 334.0802  25.9900 15.22743431309482
STARLINK-1156,45054,53.058,0.0001275,15.06402544,546.320780008632,548.0867419026763,1 45054U 20006L   25253.33535682  .00002344  00000+0  17619-3 0  9997,2 45054  53.0580  16.2637 0001275  92.6341 267.4794 15.06402544309277
STARLINK-1159,45057,53.0567,0.0001449,15.06411666,546.1723257339972,548.1792813844686,1 45057U 20006P   25253.35010726  .00006348  00000+0  44450-3 0  9990,2 45057  53.0567  16.1950 0001449  81.6227 278.4926 15.06411666309281
STARLINK-1166,45060,53.0565,0.0001061,15.06401747,546.47142472616,547.9409825539715,1 45060U 20006S   25253.36115314  .00001937  00000+0  14886-3 0  9993,2 45060  53.0565  16.1476 0001061  84.8308 275.2802 15.06401747309288
STARLINK-1169,45061,53.0574,0.0001269,15.06403028,546.3234520156102,548.0811031242574,1 45061U 20006T   25253.36852713  .00001799  00000+0  13963-3 0  9996,2 45061  53.0574  16.1143 0001269  95.7919 264.3215 15.06403028309280
STARLINK-1171,45062,53.0555,0.0001249,15.06383444,546.3973177859189,548.1272825310989,1 45062U 20006U   25252.62397318 -.00000286  00000+0 -28163-6 0  9993,2 45062  53.0555  19.4509 0001249  99.0012 261.1119 15.06383444309176
STARLINK-1133,45064,53.0561,0.0001375,15.06424011,546.1857433507739,548.0901939671539,1 45064U 20006W   25253.30034001  .00009539  00000+0  65799-3 0  9999,2 45064  53.0561 356.4161 0001375  74.0475 286.0666 15.06424011309550
STARLINK-1150,45067,53.0434,0.0004254,15.90084562,299.204261036949,304.88776074261295,1 45067U 20006Z   25253.66670139  .00286514  41224-4  94032-3 0  9999,2 45067  53.0434 307.0573 0004254 325.9863 196.3805 15.90084562  5590
STARLINK-1167,45071,53.0566,0.0001421,15.06401997,546.2213462672999,548.1895285880164,1 45071U 20006AD  25252.59632969  .00003124  00000+0  22854-3 0  9993,2 45071  53.0566 359.5820 0001421  74.2993 285.8153 15.06401997309442
STARLINK-1168,45072,53.0574,0.0001284,15.06395812,546.3351771818952,548.1136099877676,1 45072U 20006AE  25252.99809594  .00002351  00000+0  17671-3 0  9990,2 45072  53.0574 357.7788 0001284 105.0655 255.0476 15.06395812309502
STARLINK-1172,45074,53.0569,0.0001137,15.06393762,546.4432622709892,548.0180908806424,1 45074U 20006AG  25253.27454260  .00003191  00000+0  23306-3 0  9995,2 45074  53.0569 356.5339 0001137  84.1718 275.9400 15.06393762309545
STARLINK-1153,45080,53.0559,0.000135,15.06406755,546.2559356531265,548.1257741739528,1 45080U 20006AN  25253.31877752  .00003030  00000+0  22218-3 0  9995,2 45080  53.0559 356.3378 0001350  83.4550 276.6593 15.06406755309554
STARLINK-1151,45081,53.0573,0.0001398,15.06409513,546.214242464418,548.1505617692492,1 45081U 20006AP  25253.30402877  .00004282  00000+0  30611-3 0  9993,2 45081  53.0573 356.4748 0001398  85.4625 274.6523 15.06409513309556
STARLINK-1190,45083,53.0513,0.0007185,15.7119298,350.64825915980236,360.32447593897086,1 45083U 20006AR  25253.25393055  .00097750  00000+0  75316-3 0  9999,2 45083  53.0513 334.0693 0007185 356.8526   3.2444 15.71192980309869
STARLINK-1173,45084,53.0465,0.0010315,15.78164098,328.71715617413247,342.5676831168612,1 45084U 20006AS  25253.66670139  .00103897  00000+0  59013-3 0  9992,2 45084  53.0465 296.5726 0010315 332.4041 128.5720 15.78164098  5852
STARLINK-1179,45085,53.0407,0.0006258,15.88950585,301.04145694727686,309.40635145497436,1 45085U 20006AT  25253.66670139  .00241975  00000+0  81058-3 0  9997,2 45085  53.0407 288.1039 0006258 341.5102   1.4470 15.88950585  6007
STARLINK-1185,45087,53.0568,0.0001271,15.06402031,546.3251222122362,548.0855442333414,1 45087U 20006AV  25253.21372111  .00000489  00000+0  51712-4 0  9997,2 45087  53.0568 336.8071 0001271  89.9814 270.1321 15.06402031309821
STARLINK-1183,45088,53.0555,9.56e-05,15.0640561,546.5323024712134,547.8564258280385,1 45088U 20006AW  25252.50603148  .00010504  00000+0  72289-3 0  9996,2 45088  53.0555 339.9848 0000956  60.0539 300.0545 15.06405610309712
STARLINK-1176,45090,53.0492,0.0006139,15.7583344,338.134924347014,346.3862284913421,1 45090U 20006AY  25253.66670139  .00104090  00000+0  65689-3 0  9991,2 45090  53.0492 294.1040 0006139 310.9819  38.4928 15.75833440  5934
STARLINK-1142,45093,53.04,0.0006218,15.48546088,416.750792823339,425.20617283778665,1 45093U 20006BB  25252.43057356  .00058333  00000+0  10767-2 0  9992,2 45093  53.0400 291.2922 0006218  16.4311 343.6897 15.48546088310390
STARLINK-1146,45094,53.0471,0.000672,15.89687147,298.66947820878704,307.6491404485241,1 45094U 20006BC  25253.66670139  .00243515  32642-4  81612-3 0  9997,2 45094  53.0471 289.2535 0006720 335.3644 297.0405 15.89687147  5908
STARLINK-1147,45095,53.0426,0.0010065,15.87229338,303.3231464606288,316.7864765772165,1 45095U 20006BD  25253.66670139  .00192752  00000+0  70608-3 0  9995,2 45095  53.0426 291.8272 0010065 341.1990  34.0249 15.87229338  5998
STARLINK-1152,45096,53.0523,0.0004229,15.20183522,502.37556381167997,508.19756346180475,1 45096U 20006BE  25252.51846064  .00006368  00000+0  30490-3 0  9993,2 45096  53.0523 327.8482 0004229  18.4321 341.6827 15.20183522309882
STARLINK-1184,45098,53.0557,0.0001252,15.06426767,546.2624787845925,547.9965655217402,1 45098U 20006BG  25253.25058123  .00011512  00000+0  78990-3 0  9992,2 45098  53.0557 336.6422 0001252  70.6904 289.4221 15.06426767309829
STARLINK-1193,45100,53.056,0.0001691,15.06419376,545.9811075261423,548.323240324763,1 45100U 20006BJ  25253.24689048  .00005859  00000+0  41170-3 0  9998,2 45100  53.0560 336.6578 0001691  97.6794 262.4388 15.06419376309825
STARLINK-1143,45179,53.0557,0.0005135,15.32225707,465.6572442344923,472.68943195171414,1 45179U 20012B   25253.32151331  .00071822  00000+0  22657-2 0  9990,2 45179  53.0557 110.8055 0005135 118.4771 241.6747 15.32225707308013
STARLINK-1200,45181,53.0314,0.0006413,16.47340083,142.16525585133695,150.53356211950177,1 45181U 20012D   25253.99334275  .12539860  12587-4  22263-3 0  9992,2 45181  53.0314  80.0551 0006413 281.1478  78.8850 16.47340083308497
STARLINK-1201,45182,53.0389,0.0001224,16.00713278,271.62827062267206,273.2563324356852,1 45182U 20012E   25253.46618797  .00380260  73206-4  70046-3 0  9991,2 45182  53.0389  64.5214 0001224  52.7746 307.3395 16.00713278308514
STARLINK-1202,45183,53.0553,0.0001358,15.06404049,546.2586877152889,548.1396090131848,1 45183U 20012F   25253.37589362 -.00000819  00000+0 -36072-4 0  9997,2 45183  53.0553 136.0794 0001358  92.0980 268.0165 15.06404049307662
STARLINK-1216,45185,53.0542,0.0001114,15.06400693,546.4379504011558,547.9809175866503,1 45185U 20012H   25253.36852103  .00000751  00000+0  69321-4 0  9990,2 45185  53.0542 136.1115 0001114  96.1169 263.9947 15.06400693307601
STARLINK-1224,45186,53.0359,0.0001252,16.03947814,262.6666811633431,264.32974662090146,1 45186U 20012J   25254.02740318  .00471859  11318-3  71716-3 0  9998,2 45186  53.0359  82.7534 0001252  43.5425 316.5704 16.03947814308407
STARLINK-1225,45187,53.0548,0.0001388,15.0638407,546.2991363676347,548.2216266807454,1 45187U 20012K   25253.38696131 -.00003125  00000+0 -19105-3 0  9995,2 45187  53.0548 136.0310 0001388  95.2922 264.8225 15.06384070307659
STARLINK-1228,45188,53.0325,0.0008032,16.14672794,228.7445991878585,239.3664252394783,1 45188U 20012L   25253.55366101  .00960566  59826-3  72443-3 0  9993,2 45188  53.0325  22.2279 0008032 340.3514  19.7211 16.14672794309216
STARLINK-1230,45189,53.0542,0.0001222,15.06401936,546.3593475147682,548.0519012521681,1 45189U 20012M   25253.39063884  .00000605  00000+0  59486-4 0  9996,2 45189  53.0542 136.0145 0001222  87.4506 272.6623 15.06401936304881
STARLINK-1234,45190,53.0552,0.0001417,15.06405408,546.2136637047324,548.1763027887846,1 45190U 20012N   25253.27637542 -.00000955  00000+0 -45185-4 0  9994,2 45190  53.0552  96.5253 0001417  86.6428 273.4723 15.06405408308101
STARLINK-1237,45192,53.0441,0.0003392,16.11827862,239.5882303216822,244.07921846110912,1 45192U 20012Q   25253.63964291  .00766749  34317-3  70476-3 0  9990,2 45192  53.0441  83.3104 0003392 272.4764  87.5882 16.11827862308425
STARLINK-1240,45194,53.0387,0.0003741,15.9456567,287.03050291059844,292.0192475256363,1 45194U 20012S   25253.66670139  .00294431  44873-4  76474-3 0  9997,2 45194  53.0387  85.4613 0003741  92.1079  78.1045 15.94565670  6000
STARLINK-1244,45196,53.0367,0.0001312,15.99287804,275.5204943000663,277.2666431212965,1 45196U 20012U   25253.66670139  .00359243  65228-4  71834-3 0  9994,2 45196  53.0367  85.0765 0001312 100.9415 324.9371 15.99287804  6029
STARLINK-1269,45197,53.0555,0.0001566,15.06395305,546.1414356368714,548.3104593120206,1 45197U 20012V   25253.40170212  .00001421  00000+0  11432-3 0  9996,2 45197  53.0555 135.9661 0001566  95.2279 264.8889 15.06395305307635
STARLINK-1154,45198,53.0545,0.0001424,15.06396333,546.2366255528696,548.2089680229947,1 45198U 20012W   25253.32613840 -.00001061  00000+0 -52346-4 0  9999,2 45198  53.0545 116.3029 0001424  80.6697 279.4453 15.06396333307878
STARLINK-1199,45201,53.0552,0.0001347,15.063982,546.2842294906632,548.1499198783831,1 45201U 20012Z   25253.33720057 -.00000334  00000+0 -35242-5 0  9993,2 45201  53.0552 116.2537 0001347  93.3131 266.8012 15.06398200307935
